*******************************************************************************
Ephemeris / WWW_USER Sun Apr 28 18:33:45 2019 Pasadena, USA      / Horizons    
*******************************************************************************
Target body name: Pluto (999)                     {source: plu055l_merged}
Center body name: Earth (399)                     {source: plu055l_merged}
Center-site name: GEOCENTRIC
*******************************************************************************
Start time      : A.D. 2010-Jan-01 00:00:00.0000 UT      
Stop  time      : A.D. 2030-Jan-01 00:00:00.0000 UT      
Step-size       : 2880 minutes
*******************************************************************************
Target pole/equ : IAU_PLUTO                       {East-longitude positive}
Target radii    : 1195.0 x 1195.0 x 1195.0 km     {Equator, meridian, pole}    
Center geodetic : 0.00000000,0.00000000,0.0000000 {E-lon(deg),Lat(deg),Alt(km)}
Center cylindric: 0.00000000,0.00000000,0.0000000 {E-lon(deg),Dxy(km),Dz(km)}
Center pole/equ : High-precision EOP model        {East-longitude positive}
Center radii    : 6378.1 x 6378.1 x 6356.8 km     {Equator, meridian, pole}    
Target primary  : Sun
Vis. interferer : MOON (R_eq= 1737.400) km        {source: plu055l_merged}
Rel. light bend : Sun, EARTH                      {source: plu055l_merged}
Rel. lght bnd GM: 1.3271E+11, 3.9860E+05 km^3/s^2                              
Atmos refraction: YES (Earth refraction model)
RA format       : DEG
Time format     : CAL 
EOP file        : eop.190426.p190718                                           
EOP coverage    : DATA-BASED 1962-JAN-20 TO 2019-APR-26. PREDICTS-> 2019-JUL-17
Units conversion: 1 au= 149597870.700 km, c= 299792.458 km/s, 1 day= 86400.0 s 
Table cut-offs 1: Elevation (-90.0deg=NO ),Airmass (>38.000=NO), Daylight (NO )
Table cut-offs 2: Solar elongation (  0.0,180.0=NO ),Local Hour Angle( 0.0=NO )
Table cut-offs 3: RA/DEC angular rate (     0.0=NO )                           
******************************************************************************************************
 Date__(UT)__HR:MN      APmag  S-brt               r        rdot            delta      deldot    S-T-O
******************************************************************************************************
$$SOE
 2012-Jan-11 00:00      14.15   8.88  32.15967520342   0.9474859 33.1168762301870  -5.4710920   0.3915
 2012-Jan-13 00:00      14.15   8.88  32.16076673197   0.9520289 33.1099856723603  -6.4490680   0.4475
 2012-Jan-15 00:00      14.16   8.88  32.16188311034   0.9757582 33.1019883616132  -7.4020834   0.5036
 2012-Jan-17 00:00      14.16   8.89  32.16300056161   0.9533578 33.0928678369293  -8.3940552   0.5595
 2012-Jan-19 00:00      14.16   8.89  32.16409290582   0.9474322 33.0826071675827  -9.3609191   0.6151
 2012-Jan-21 00:00      14.16   8.89  32.16520415345   0.9748871 33.0712608751380 -10.2846154   0.6703
 2012-Jan-23 00:00      14.16   8.89  32.16632645461   0.9600735 33.0588341601541 -11.2374442   0.7249
 2012-Jan-25 00:00      14.16   8.90  32.16742188058   0.9445591 33.0453062028657 -12.1749412   0.7787
 2012-Jan-27 00:00      14.17   8.90  32.16852760132   0.9718460 33.0307331261354 -13.0529521   0.8318
 2012-Jan-29 00:00      14.17   8.90  32.16965279835   0.9667479 33.0151443074946 -13.9447126   0.8841
 2012-Jan-31 00:00      14.17   8.90  32.17075321733   0.9438925 32.9985183354727 -14.8337466   0.9354
 2012-Feb-02 00:00      14.17   8.91  32.17185389096   0.9671459 32.9809035877766 -15.6569197   0.9857
 2012-Feb-04 00:00      14.17   8.91  32.17297970723   0.9725035 32.9623479211005 -16.4774418   1.0349
 2012-Feb-06 00:00      14.17   8.91  32.17408640319   0.9455998 32.9428320057785 -17.3079586   1.0830
 2012-Feb-08 00:00      14.17   8.91  32.17518331555   0.9615328 32.9223902556054 -18.0749222   1.1299
 2012-Feb-10 00:00      14.17   8.91  32.17630747660   0.9765953 32.9010828407070 -18.8227929   1.1756
 2012-Feb-12 00:00      14.17   8.92  32.17742092393   0.9495093 32.8788958659513 -19.5911315   1.2200
 2012-Feb-14 00:00      14.17   8.92  32.17851598295   0.9558817 32.8558466635477 -20.3048176   1.2630
 2012-Feb-16 00:00      14.17   8.92  32.17963654088   0.9785181 32.8320034331820 -20.9806092   1.3046
 2012-Feb-18 00:00      14.17   8.92  32.18075633907   0.9551369 32.8073671807637 -21.6766652   1.3447
 2012-Feb-20 00:00      14.17   8.92  32.18185180354   0.9510736 32.7819454435133 -22.3260480   1.3834
 2012-Feb-22 00:00      14.17   8.92  32.18296741521   0.9780775 32.7558141393041 -22.9168840   1.4204
 2012-Feb-24 00:00      14.17   8.93  32.18409234866   0.9617546 32.7289959602885 -23.5201818   1.4559
 2012-Feb-26 00:00      14.17   8.93  32.18519050675   0.9478692 32.7014916210174 -24.0890692   1.4897
 2012-Feb-28 00:00      14.17   8.93  32.18630062427   0.9754163 32.6733756297338 -24.5863680   1.5217
 2012-Mar-01 00:00      14.17   8.93  32.18742883635   0.9684941 32.6446896395718 -25.0861587   1.5521
 2012-Mar-03 00:00      14.17   8.93  32.18853167838   0.9467989 32.6154282789516 -25.5675573   1.5806
 2012-Mar-05 00:00      14.17   8.93  32.18963662417   0.9709905 32.5856558208696 -25.9726422   1.6074
 2012-Mar-07 00:00      14.17   8.93  32.19076588032   0.9744685 32.5554293060018 -26.3677644   1.6323
 2012-Mar-09 00:00      14.17   8.93  32.19187481276   0.9480867 32.5247404949893 -26.7610379   1.6553
 2012-Mar-11 00:00      14.17   8.93  32.19297573019   0.9655046 32.4936367396980 -27.0818209   1.6765
 2012-Mar-13 00:00      14.17   8.94  32.19410373472   0.9789006 32.4621858147258 -27.3776013   1.6957
 2012-Mar-15 00:00      14.16   8.94  32.19521937981   0.9516204 32.4303842052911 -27.6810914   1.7130
 2012-Mar-17 00:00      14.16   8.94  32.19631807049   0.9598141 32.3982657058239 -27.9162978   1.7283
 2012-Mar-19 00:00      14.16   8.94  32.19744279488   0.9812363 32.3659110082360 -28.1049638   1.7416
 2012-Mar-21 00:00      14.16   8.94  32.19856490509   0.9569698 32.3333322572240 -28.3020824   1.7528
 2012-Mar-23 00:00      14.16   8.94  32.19966357369   0.9548045 32.3005519416512 -28.4403225   1.7621
 2012-Mar-25 00:00      14.16   8.94  32.20078354601   0.9812213 32.2676559177601 -28.5149226   1.7693
 2012-Mar-27 00:00      14.15   8.94  32.20191104088   0.9634464 32.2346721850083 -28.5961293   1.7744
 2012-Mar-29 00:00      14.15   8.94  32.20301198061   0.9512634 32.2016103892316 -28.6346586   1.7774
 2012-Mar-31 00:00      14.15   8.94  32.20412649341   0.9789354 32.1685514523228 -28.5993871   1.7783
 2012-Apr-02 00:00      14.15   8.94  32.20525761340   0.9702009 32.1355380260701 -28.5652575   1.7772
 2012-Apr-04 00:00      14.15   8.94  32.20636287834   0.9497684 32.1025688165300 -28.5078227   1.7740
 2012-Apr-06 00:00      14.14   8.94  32.20747208761   0.9747805 32.0697115570578 -28.3741961   1.7687
 2012-Apr-08 00:00      14.14   8.94  32.20860464472   0.9763450 32.0370207109229 -28.2330440   1.7614
 2012-Apr-10 00:00      14.14   8.94  32.20971575682   0.9506054 32.0044886441110 -28.0863724   1.7520
 2012-Apr-12 00:00      14.14   8.94  32.21082065893   0.9694232 31.9721677181506 -27.8638393   1.7405
 2012-Apr-14 00:00      14.13   8.94  32.21195234823   0.9810780 31.9401275369806 -27.6154557   1.7270
 2012-Apr-16 00:00      14.13   8.94  32.21307008041   0.9537277 31.9083677519117 -27.3697314   1.7115
 2012-Apr-18 00:00      14.13   8.94  32.21417236892   0.9637002 31.8769281934717 -27.0521617   1.6939
 2012-Apr-20 00:00      14.12   8.94  32.21530109529   0.9838007 31.8458896728723 -26.6907194   1.6743
 2012-Apr-22 00:00      14.12   8.94  32.21642536051   0.9587615 31.8152616539749 -26.3384754   1.6527
 2012-Apr-24 00:00      14.12   8.93  32.21752718352   0.9584984 31.7850669207795 -25.9276506   1.6292
 2012-Apr-26 00:00      14.12   8.93  32.21865135842   0.9841999 31.7553874504360 -25.4595674   1.6037
 2012-Apr-28 00:00      14.11   8.93  32.21978122211   0.9650605 31.7262433904750 -25.0037310   1.5763
 2012-Apr-30 00:00      14.11   8.93  32.22088487587   0.9546304 31.6976399269882 -24.5084811   1.5471
 2012-May-02 00:00      14.11   8.93  32.22200364297   0.9822936 31.6696514303183 -23.9481711   1.5160
 2012-May-04 00:00      14.10   8.93  32.22313745724   0.9717986 31.6423088377121 -23.3988399   1.4831
 2012-May-06 00:00      14.10   8.93  32.22424505933   0.9527196 31.6156021042713 -22.8319160   1.4485
 2012-May-08 00:00      14.10   8.93  32.22535841631   0.9784277 31.5895917312648 -22.1965504   1.4121
 2012-May-10 00:00      14.09   8.92  32.22649405534   0.9780879 31.5643224054871 -21.5613730   1.3741
 2012-May-12 00:00      14.09   8.92  32.22760724256   0.9531101 31.5397809210358 -20.9228459   1.3344
 2012-May-14 00:00      14.09   8.92  32.22871604042   0.9732263 31.5160167715089 -20.2130066   1.2932
 2012-May-16 00:00      14.08   8.92  32.22985120236   0.9831040 31.4930907731030 -19.4869647   1.2504
 2012-May-18 00:00      14.08   8.92  32.23097089621   0.9558172 31.4709923863095 -18.7708554   1.2061
 2012-May-20 00:00      14.08   8.92  32.23207671671   0.9675022 31.4497532714944 -17.9912960   1.1604
 2012-May-22 00:00      14.07   8.91  32.23320925098   0.9862048 31.4294411069629 -17.1816734   1.1133
 2012-May-24 00:00      14.07   8.91  32.23433552646   0.9605258 31.4100497857554 -16.3932171   1.0649
 2012-May-26 00:00      14.07   8.91  32.23544045715   0.9621430 31.3915896460013 -15.5571297   1.0153
 2012-May-28 00:00      14.06   8.91  32.23656867109   0.9870222 31.3741270200108 -14.6800289   0.9644
 2012-May-30 00:00      14.06   8.91  32.23770074677   0.9666352 31.3576627211551 -13.8309322   0.9125
 2012-Jun-01 00:00      14.06   8.90  32.23880708322   0.9579839 31.3421858597734 -12.9554033   0.8596
 2012-Jun-03 00:00      14.05   8.90  32.23992998208   0.9855125 31.3277540058974 -12.0314474   0.8057
 2012-Jun-05 00:00      14.05   8.90  32.24106633043   0.9733431 31.3143784655254 -11.1341228   0.7509
